{
  "norad_id": 65882,
  "name": "STARLINK-35270",
  "history": [
    {
      "epoch": "2026-03-28T19:46:41.020896",
      "apogee_km": 475.8186447453909,
      "perigee_km": 474.44127515178116,
      "latitude_deg": -29.50840303953676,
      "longitude_deg": 127.31224543997087,
      "semi_major_axis_km": 6853.266959948586,
      "eccentricity": 0.00010049,
      "inclination_deg": 53.1583,
      "raan_deg": 282.4932,
      "arg_perigee_deg": 99.8195,
      "mean_anomaly_deg": 260.2919,
      "mean_motion_rev_day": 15.30228505
    }
  ]
}